[{"OBJECT_NAME":"EOSSAT-1","OBJECT_ID":"2023-001AW","EPOCH":"2026-03-09T17:40:07.010400","MEAN_MOTION":15.32339828,"ECCENTRICITY":0.00112629,"INCLINATION":97.3357,"RA_OF_ASC_NODE":130.2294,"ARG_OF_PERICENTER":110.3168,"MEAN_ANOMALY":249.9285,"EPHEMERIS_TYPE":0,"CLASSIFICATION_TYPE":"U","NORAD_CAT_ID":55053,"ELEMENT_SET_NO":999,"REV_AT_EPOCH":17668,"BSTAR":0.00024844399,"MEAN_MOTION_DOT":7.695e-5,"MEAN_MOTION_DDOT":0},{"OBJECT_NAME":"STARLINK-32732","OBJECT_ID":"2025-003B","EPOCH":"2026-03-09T00:30:10.156032","MEAN_MOTION":15.27585522,"ECCENTRICITY":0.00021843,"INCLINATION":43.0035,"RA_OF_ASC_NODE":292.3743,"ARG_OF_PERICENTER":287.6864,"MEAN_ANOMALY":72.375,"EPHEMERIS_TYPE":0,"CLASSIFICATION_TYPE":"U","NORAD_CAT_ID":62488,"ELEMENT_SET_NO":999,"REV_AT_EPOCH":6645,"BSTAR":0.0010288474,"MEAN_MOTION_DOT":0.00028163,"MEAN_MOTION_DDOT":0}]
